TRANSPORTER-12 OBJECT CL
1 62691U 25009CL  26204.51996127  .00049929  00000+0  92983-3 0  9990
2 62691  97.3751 290.3893 0003435 116.5938 243.5665 15.48688051 84818
LEMUR-2-WILSON          
1 62694U 25009CP  26204.16513441  .00002251  00000+0  20949-3 0  9998
2 62694  97.7016 281.9988 0001537 276.7410  83.3636 14.95300842 82732
CONNECTA IOT-8          
1 62695U 25009CQ  26204.15639655  .00000996  00000+0  10053-3 0  9993
2 62695  97.7066 281.2917 0001678 210.8963 149.2158 14.93257267 82664
LEMUR-2-STAR-FOX        
1 62696U 25009CR  26204.64917868  .00008175  00000+0  61289-3 0  9997
2 62696  97.6907 285.9951 0001381   5.9898 354.1343 15.02931306 83037
IRIDE-MS2-HEO-1         
1 62697U 25009CS  26204.71751263  .00001448  00000+0  13931-3 0  9998
2 62697  97.7032 282.3448 0001190 204.8903 155.2260 14.94515883 82793
ICEYE-X42               
1 62698U 25009CT  26204.22494391  .00001776  00000+0  18143-3 0  9995
2 62698  97.7387 281.8893 0001318  99.6162 260.5206 14.91841477 82668
LEMUR-2-ARIANNA         
1 62699U 25009CU  26204.18158072  .00008151  00000+0  61112-3 0  9992
2 62699  97.6849 285.2770 0001755  20.3119 339.8175 15.02927089 82966
ICEYE-X41               
1 62700U 25009CV  26204.50239797  .00003820  00000+0  33734-3 0  9992
2 62700  97.7058 283.5022 0000832 156.4930 203.6330 14.96952485 82848
FIREFLY-1               
1 62701U 25009CW  26204.82730558  .00001449  00000+0  14568-3 0  9998
2 62701  97.7055 282.1956 0003309 188.8092 171.3070 14.92756391 82786
NORSAT 4                
1 62702U 25009CX  26204.45283162  .00001301  00000+0  12366-3 0  9993
2 62702  97.7036 282.5245 0000055 310.5775  49.5441 14.95158289 82781
CONNECTA IOT-5          
1 62703U 25009CY  26204.44597876  .00000912  00000+0  90316-4 0  9992
2 62703  97.7016 282.3503 0001205 340.1990  19.9183 14.94225325 82780
FIREFLY-2               
1 62704U 25009CZ  26204.67116802  .00000873  00000+0  89942-4 0  9993
2 62704  97.7012 281.8078 0005662 333.1606  26.9320 14.92748896 82765
ICEYE-X45               
1 62705U 25009DA  26204.66509186  .00004685  00000+0  37320-3 0  9991
2 62705  97.8435 291.6599 0000710  43.5454 316.5825 15.00858467 83153
LEMUR-2-ALISIA          
1 62706U 25009DB  26204.21874426  .00007720  00000+0  57394-3 0  9991
2 62706  97.6960 286.1551 0005036 108.8576 251.3196 15.03260205105576
ICEYE-X44               
1 62707U 25009DC  26204.20131147  .00001920  00000+0  17543-3 0  9995
2 62707  97.7048 282.7598 0001890  55.9937 304.1463 14.96195449105320
CENTAURI-7              
1 62708U 25009DD  26204.60141634  .00002528  00000+0  21906-3 0  9995
2 62708  97.7081 284.4175 0002100  93.3311 266.8151 14.98004556 82912
CONNECTA IOT-6          
1 62709U 25009DE  26204.15509132  .00001124  00000+0  10992-3 0  9991
2 62709  97.7016 281.8391 0002352  57.1864 302.9582 14.94276807 82738
FIREFLY-3               
1 62710U 25009DF  26204.85000765  .00001138  00000+0  11533-3 0  9995
2 62710  97.7046 282.2472 0004368  52.6210 307.5406 14.92816115 82806
LEMUR-2-ROUNDTRIPPER    
1 62711U 25009DG  26204.21828631  .00007728  00000+0  55869-3 0  9997
2 62711  97.7239 286.8567 0004279  48.2093 311.9498 15.04319119 83040
LEMUR-2-MYNAMEISJEFF    
1 62712U 25009DH  26204.48288613  .00008034  00000+0  58065-3 0  9999
2 62712  97.7285 287.5241 0004252  80.9119 279.2587 15.04317939 83089
SATGUS                  
1 62713U 25009DJ  26204.18578578  .00007854  00000+0  60978-3 0  9994
2 62713  97.6857 285.2050 0004695  13.6130 346.5220 15.01603258 82961
CENTAURI-8              
1 62714U 25009DK  26204.49676398  .00003607  00000+0  31065-3 0  9995
2 62714  97.7030 284.1281 0002688  73.7509 286.4008 14.97963664 82912
CONNECTA IOT-7          
1 62715U 25009DL  26204.66689815  .00000443  00000+0  46514-4 0  9994
2 62715  97.7070 282.7572 0002793  84.2162 275.9377 14.94240313 82797
PRSC-EO1                
1 62725U 25012A   26204.85025721  .00007477  00000+0  37381-3 0  9995
2 62725  97.4211 276.5895 0007309 122.3416 237.8526 15.17706078 83756
2025-012B               
1 62726U 25012B   26204.63783786  .00004763  00000+0  21448-3 0  9996
2 62726  97.4216 277.1950 0010127 141.4844 218.7117 15.21506924 83791
2025-012C               
1 62727U 25012C   26204.83156641  .00012903  00000+0  47146-3 0  9991
2 62727  97.4246 280.2059 0008912 132.3390 227.8606 15.28193079 83989
2025-013A               
1 62729U 25013A   26204.84417405  .00042211  00000+0  11547-2 0  9993
2 62729  97.6396  24.8767 0009422 160.1989 199.9622 15.37195071 83584
2025-013B               
1 62730U 25013B   26204.88717810  .00004248  00000+0  25425-3 0  9991
2 62730  97.6592  14.3188 0012037 240.2172 119.7861 15.11520104 82872
2025-013C               
1 62731U 25013C   26204.80760476  .00003993  00000+0  23943-3 0  9999
2 62731  97.6544  13.9166 0012737 244.0273 115.9645 15.11486257 82869
2025-013D               
1 62732U 25013D   26204.82823918  .00004190  00000+0  25097-3 0  9995
2 62732  97.6576  14.2847 0007062 262.3889  97.6539 15.11540077 82810
