OBJECT_NAME,OBJECT_ID,EPOCH,MEAN_MOTION,ECCENTRICITY,INCLINATION,RA_OF_ASC_NODE,ARG_OF_PERICENTER,MEAN_ANOMALY,EPHEMERIS_TYPE,CLASSIFICATION_TYPE,NORAD_CAT_ID,ELEMENT_SET_NO,REV_AT_EPOCH,BSTAR,MEAN_MOTION_DOT,MEAN_MOTION_DDOT
TRANSPORTER-12 OBJECT CL,2025-009CL,2026-07-23T12:28:44.653728,15.48688051,.0003435,97.3751,290.3893,116.5938,243.5665,0,U,62691,999,8481,.92983E-3,.49929E-3,0
LEMUR-2-WILSON,2025-009CP,2026-07-23T03:57:47.613024,14.95300842,.00015377,97.7016,281.9988,276.7410,83.3636,0,U,62694,999,8273,.20949158E-3,.2251E-4,0
CONNECTA IOT-8,2025-009CQ,2026-07-23T03:45:12.661920,14.93257267,.00016786,97.7066,281.2917,210.8963,149.2158,0,U,62695,999,8266,.10053423E-3,.996E-5,0
LEMUR-2-STAR-FOX,2025-009CR,2026-07-23T15:34:49.037952,15.02931306,.0001381,97.6907,285.9951,5.9898,354.1343,0,U,62696,999,8303,.61289E-3,.8175E-4,0
IRIDE-MS2-HEO-1,2025-009CS,2026-07-23T17:13:13.091232,14.94515883,.000119,97.7032,282.3448,204.8903,155.2260,0,U,62697,999,8279,.13931E-3,.1448E-4,0
ICEYE-X42,2025-009CT,2026-07-23T05:23:55.153824,14.91841477,.0001318,97.7387,281.8893,99.6162,260.5206,0,U,62698,999,8266,.18143E-3,.1776E-4,0
LEMUR-2-ARIANNA,2025-009CU,2026-07-23T04:21:28.574208,15.02927089,.0001755,97.6849,285.2770,20.3119,339.8175,0,U,62699,999,8296,.61112E-3,.8151E-4,0
ICEYE-X41,2025-009CV,2026-07-23T12:03:27.184608,14.96952485,.0000832,97.7058,283.5022,156.4930,203.6330,0,U,62700,999,8284,.33734E-3,.382E-4,0
FIREFLY-1,2025-009CW,2026-07-23T19:51:19.202112,14.92756391,.0003309,97.7055,282.1956,188.8092,171.3070,0,U,62701,999,8278,.14568E-3,.1449E-4,0
NORSAT 4,2025-009CX,2026-07-23T10:52:04.651968,14.95158289,.0000055,97.7036,282.5245,310.5775,49.5441,0,U,62702,999,8278,.12366E-3,.1301E-4,0
CONNECTA IOT-5,2025-009CY,2026-07-23T10:42:12.564864,14.94225325,.0001205,97.7016,282.3503,340.1990,19.9183,0,U,62703,999,8278,.90316E-4,.912E-5,0
FIREFLY-2,2025-009CZ,2026-07-23T16:06:28.916928,14.92748896,.0005662,97.7012,281.8078,333.1606,26.9320,0,U,62704,999,8276,.89942E-4,.873E-5,0
ICEYE-X45,2025-009DA,2026-07-23T15:57:43.936704,15.00858467,.000071,97.8435,291.6599,43.5454,316.5825,0,U,62705,999,8315,.3732E-3,.4685E-4,0
LEMUR-2-ALISIA,2025-009DB,2026-07-23T05:14:59.504064,15.03260205,.0005036,97.6960,286.1551,108.8576,251.3196,0,U,62706,999,10557,.57394E-3,.772E-4,0
ICEYE-X44,2025-009DC,2026-07-23T04:49:53.311008,14.96195449,.00018901,97.7048,282.7598,55.9937,304.1463,0,U,62707,999,10532,.17542835E-3,.192E-4,0
CENTAURI-7,2025-009DD,2026-07-23T14:26:02.371776,14.98004556,.00021,97.7081,284.4175,93.3311,266.8151,0,U,62708,999,8291,.21906E-3,.2528E-4,0
CONNECTA IOT-6,2025-009DE,2026-07-23T03:43:19.890048,14.94276807,.0002352,97.7016,281.8391,57.1864,302.9582,0,U,62709,999,8273,.10992E-3,.1124E-4,0
FIREFLY-3,2025-009DF,2026-07-23T20:24:00.660960,14.92816115,.0004368,97.7046,282.2472,52.6210,307.5406,0,U,62710,999,8280,.11533E-3,.1138E-4,0
LEMUR-2-ROUNDTRIPPER,2025-009DG,2026-07-23T05:14:19.937184,15.04319119,.0004279,97.7239,286.8567,48.2093,311.9498,0,U,62711,999,8304,.55869E-3,.7728E-4,0
LEMUR-2-MYNAMEISJEFF,2025-009DH,2026-07-23T11:35:21.361632,15.04317939,.0004252,97.7285,287.5241,80.9119,279.2587,0,U,62712,999,8308,.58065E-3,.8034E-4,0
SATGUS,2025-009DJ,2026-07-23T04:27:31.891392,15.01603258,.0004695,97.6857,285.2050,13.6130,346.5220,0,U,62713,999,8296,.60978E-3,.7854E-4,0
CENTAURI-8,2025-009DK,2026-07-23T11:55:20.407872,14.97963664,.0002688,97.7030,284.1281,73.7509,286.4008,0,U,62714,999,8291,.31065E-3,.3607E-4,0
CONNECTA IOT-7,2025-009DL,2026-07-23T16:00:20.000160,14.94240313,.0002793,97.7070,282.7572,84.2162,275.9377,0,U,62715,999,8279,.46514E-4,.443E-5,0
PRSC-EO1,2025-012A,2026-07-23T20:24:22.222944,15.17706078,.0007309,97.4211,276.5895,122.3416,237.8526,0,U,62725,999,8375,.37381E-3,.7477E-4,0
2025-012B,2025-012B,2026-07-23T15:18:29.191104,15.21506924,.0010127,97.4216,277.1950,141.4844,218.7117,0,U,62726,999,8379,.21448E-3,.4763E-4,0
2025-012C,2025-012C,2026-07-23T19:57:27.337824,15.28193079,.0008912,97.4246,280.2059,132.3390,227.8606,0,U,62727,999,8398,.47146E-3,.12903E-3,0
2025-013A,2025-013A,2026-07-23T20:15:36.637920,15.37195071,.0009422,97.6396,24.8767,160.1989,199.9622,0,U,62729,999,8358,.11547E-2,.42211E-3,0
2025-013B,2025-013B,2026-07-23T21:17:32.187840,15.11520104,.0012037,97.6592,14.3188,240.2172,119.7861,0,U,62730,999,8287,.25425E-3,.4248E-4,0
2025-013C,2025-013C,2026-07-23T19:22:57.051264,15.11486257,.0012737,97.6544,13.9166,244.0273,115.9645,0,U,62731,999,8286,.23943E-3,.3993E-4,0
2025-013D,2025-013D,2026-07-23T19:52:39.865152,15.11540077,.0007062,97.6576,14.2847,262.3889,97.6539,0,U,62732,999,8281,.25097E-3,.419E-4,0
